NORAD_CAT_ID,OBJECT_NAME,OBJECT_TYPE,EPOCH,MEAN_MOTION,ECCENTRICITY,INCLINATION,RA_OF_ASC_NODE,ARG_OF_PERICENTER,MEAN_ANOMALY,BSTAR,MEAN_MOTION_DOT,MEAN_MOTION_DDOT,TLE_LINE0,TLE_LINE1,TLE_LINE2,SEMIMAJOR_AXIS,PERIOD,APOGEE,PERIGEE,DECAYED
52139.0,STARLINK-3730,PAYLOAD,2022-11-03 01:09:14,15.08820627,0.0002059,53.2169,167.7708,49.8969,310.2203,-7.9001e-05,-1.545e-05,0.0,0 STARLINK-3730,1 52139U 22029BD  22307.04808687 -.00001545  00000-0 -79001-4 0  9998,2 52139  53.2169 167.7708 0002059  49.8969 310.2203 15.08820627 36217,6917.94,95.439,541.229,538.38,0.0
52139.0,STARLINK-3730,PAYLOAD,2022-11-04 01:00:00,15.08849078,0.0002201,53.217,163.3123,52.9616,307.1577,-4.6122e-05,-1.023e-05,0.0,0 STARLINK-3730,1 52139U 22029BD  22308.04167372 -.00001023  00000-0 -46122-4 0  9997,2 52139  53.2170 163.3123 0002201  52.9616 307.1577 15.08849078 36361,6917.853,95.437,541.24,538.195,0.0
52139.0,STARLINK-3730,PAYLOAD,2022-11-04 13:43:05,15.08846389,0.000222,53.2177,160.9326,53.5425,306.5772,0.00020237,2.935e-05,0.0,0 STARLINK-3730,1 52139U 22029BD  22308.57158647  .00002935  00000-0  20237-3 0  9999,2 52139  53.2177 160.9326 0002220  53.5425 306.5772 15.08846389 36443,6917.861,95.437,541.262,538.19,0.0
52139.0,STARLINK-3730,PAYLOAD,2022-11-04 15:18:28,15.08834849,0.0001962,53.2185,160.6333,41.8885,318.2257,0.00015575,2.191e-05,0.0,0 STARLINK-3730,1 52139U 22029BD  22308.63783471  .00002191  00000-0  15575-3 0  9998,2 52139  53.2185 160.6333 0001962  41.8885 318.2257 15.08834849 36456,6917.896,95.438,541.118,538.404,0.0
52139.0,STARLINK-3730,PAYLOAD,2022-11-05 07:12:20,15.08837538,0.0001903,53.2179,157.6602,34.5333,325.5782,-1.0632e-07,-2.9e-06,0.0,0 STARLINK-3730,1 52139U 22029BD  22309.30023924 -.00000290  00000-0 -10632-6 0  9995,2 52139  53.2179 157.6602 0001903  34.5333 325.5782 15.08837538 36559,6917.888000000001,95.438,541.069,538.436,0.0
52139.0,STARLINK-3730,PAYLOAD,2022-11-05 19:55:26,15.08838975,0.0002966,53.216,155.2825,57.0805,303.0472,-0.00011765,-2.161e-05,0.0,0 STARLINK-3730,1 52139U 22029BD  22309.83017051 -.00002161  00000-0 -11765-3 0  9991,2 52139  53.2160 155.2825 0002966  57.0805 303.0472 15.08838975 36636,6917.884,95.438,541.8,537.697,0.0
52139.0,STARLINK-3730,PAYLOAD,2022-11-06 03:52:23,15.08826441,0.0002214,53.2163,153.7953,50.1653,309.9533,-0.00020584,-3.562e-05,0.0,0 STARLINK-3730,1 52139U 22029BD  22310.16138259 -.00003562  00000-0 -20584-3 0  9998,2 52139  53.2163 153.7953 0002214  50.1653 309.9533 15.08826441 36688,6917.922,95.438,541.318,538.255,0.0
52139.0,STARLINK-3730,PAYLOAD,2022-11-06 07:03:09,15.08827232,0.0002311,53.2164,153.2005,50.7389,309.3808,-0.00019031,-3.315e-05,0.0,0 STARLINK-3730,1 52139U 22029BD  22310.29386328 -.00003315  00000-0 -19031-3 0  9995,2 52139  53.2164 153.2005 0002311  50.7389 309.3808 15.08827232 36703,6917.919,95.438,541.383,538.186,0.0
52139.0,STARLINK-3730,PAYLOAD,2022-11-06 19:46:14,15.08835122,0.0001912,53.218,150.8208,43.5781,316.5362,2.701400000000001e-05,1.42e-06,0.0,0 STARLINK-3730,1 52139U 22029BD  22310.82377361  .00000142  00000-0  27014-4 0  9995,2 52139  53.2180 150.8208 0001912  43.5781 316.5362 15.08835122 36781,6917.895,95.438,541.0830000000002,538.438,0.0
52139.0,STARLINK-3730,PAYLOAD,2022-11-07 19:37:00,15.08839021,0.0001969,53.2182,146.3597,46.1777,313.9378,0.00026215,3.886e-05,0.0,0 STARLINK-3730,1 52139U 22029BD  22311.81736659  .00003886  00000-0  26215-3 0  9993,2 52139  53.2182 146.3597 0001969  46.1777 313.9378 15.08839021 36937,6917.8830000000025,95.438,541.111,538.386,0.0
52139.0,STARLINK-3730,PAYLOAD,2022-11-07 22:47:46,15.08842254,0.0002086,53.2162,145.7663,46.6795,313.4371,0.00027908,4.156e-05,0.0,0 STARLINK-3730,1 52139U 22029BD  22311.94984459  .00004156  00000-0  27908-3 0  9991,2 52139  53.2162 145.7663 0002086  46.6795 313.4371 15.08842254 36950,6917.873000000001,95.437,541.182,538.295,0.0
52139.0,STARLINK-3730,PAYLOAD,2022-11-08 19:27:47,15.088205300000002,0.0001824,53.2181,141.8994,48.7297,311.3852,0.00059696,9.22e-05,0.0,0 STARLINK-3730,1 52139U 22029BD  22312.81096982  .00009220  00000-0  59696-3 0  9999,2 52139  53.2181 141.8994 0001824  48.7297 311.3852 15.08820530 37083,6917.94,95.439,541.067,538.543,0.0
52139.0,STARLINK-3730,PAYLOAD,2022-11-09 11:21:37,15.08863174,0.0002204,53.2171,138.9258,52.1306,307.9885,4.2299e-05,3.85e-06,0.0,0 STARLINK-3730,1 52139U 22029BD  22313.47334851  .00000385  00000-0  42299-4 0  9997,2 52139  53.2171 138.9258 0002204  52.1306 307.9885 15.08863174 37184,6917.81,95.436,541.1990000000002,538.15,0.0
52139.0,STARLINK-3730,PAYLOAD,2022-11-09 19:18:34,15.08849128,0.0002176,53.217,137.4388,52.9054,307.2137,-6.1347e-05,-1.265e-05,0.0,0 STARLINK-3730,1 52139U 22029BD  22313.80456035 -.00001265  00000-0 -61347-4 0  9998,2 52139  53.2170 137.4388 0002176  52.9054 307.2137 15.08849128 37239,6917.852,95.437,541.2230000000002,538.212,0.0
52139.0,STARLINK-3730,PAYLOAD,2022-11-09 22:29:19,15.08872284,0.0001689,53.2181,136.8461,39.3789,320.7326,-0.00031889,-5.364e-05,0.0,0 STARLINK-3730,1 52139U 22029BD  22313.93703467 -.00005364  00000-0 -31889-3 0  9997,2 52139  53.2181 136.8461 0001689  39.3789 320.7326 15.08872284 37259,6917.781999999997,95.436,540.815,538.4780000000002,0.0
52139.0,STARLINK-3730,PAYLOAD,2022-11-10 12:47:48,15.08838232,0.0001826,53.2163,134.1682,32.5795,327.5309,-9.2776e-05,-1.764e-05,0.0,0 STARLINK-3730,1 52139U 22029BD  22314.53320555 -.00001764  00000-0 -92776-4 0  9990,2 52139  53.2163 134.1682 0001826  32.5795 327.5309 15.08838232 37341,6917.886,95.438,541.014,538.488,0.0
52139.0,STARLINK-3730,PAYLOAD,2022-11-10 17:33:58,15.08841657,0.0001923,53.2176,133.2768,39.9972,320.1161,-6.955600000000001e-05,-1.395e-05,0.0,0 STARLINK-3730,1 52139U 22029BD  22314.73192262 -.00001395  00000-0 -69556-4 0  9994,2 52139  53.2176 133.2768 0001923  39.9972 320.1161 15.08841657 37379,6917.875,95.437,541.071,538.41,0.0
52139.0,STARLINK-3730,PAYLOAD,2022-11-10 19:09:21,15.08841942,0.0001925,53.2175,132.9794,39.3975,320.7157,-6.5615e-05,-1.332e-05,0.0,0 STARLINK-3730,1 52139U 22029BD  22314.79816216 -.00001332  00000-0 -65615-4 0  9995,2 52139  53.2175 132.9794 0001925  39.3975 320.7157 15.08841942 37381,6917.874,95.437,541.071,538.408,0.0
52139.0,STARLINK-3730,PAYLOAD,2022-11-11 12:38:35,15.08835516,0.0001977,53.2176,129.7082,41.3012,318.8129,8.8021e-05,1.113e-05,0.0,0 STARLINK-3730,1 52139U 22029BD  22315.52679890  .00001113  00000-0  88021-4 0  9993,2 52139  53.2176 129.7082 0001977  41.3012 318.8129 15.08835516 37497,6917.894,95.438,541.127,538.391,0.0
52139.0,STARLINK-3730,PAYLOAD,2022-11-11 19:00:08,15.08831186,0.0001453999999999,53.2176,128.5189,57.8518,302.2615,4.277e-05,3.93e-06,0.0,0 STARLINK-3730,1 52139U 22029BD  22315.79176241  .00000393  00000-0  42770-4 0  9994,2 52139  53.2176 128.5189 0001454  57.8518 302.2615 15.08831186 37536,6917.906999999997,95.438,540.778,538.766,0.0
52139.0,STARLINK-3730,PAYLOAD,2022-11-11 20:35:31,15.08827599,0.0001972,53.218,128.2219,43.0848,317.0298,1.5145e-05,-4.7e-07,0.0,0 STARLINK-3730,1 52139U 22029BD  22315.85800753 -.00000047  00000-0  15145-4 0  9996,2 52139  53.2180 128.2219 0001972  43.0848 317.0298 15.08827599 37545,6917.918000000002,95.438,541.148,538.419,0.0
52139.0,STARLINK-3730,PAYLOAD,2022-11-12 12:29:23,15.08831906,0.0001974,53.2176,125.2476,42.74100000000001,317.3735,-6.4342e-07,-2.98e-06,0.0,0 STARLINK-3730,1 52139U 22029BD  22316.52040964 -.00000298  00000-0 -64342-6 0  9995,2 52139  53.2176 125.2476 0001974  42.7410 317.3735 15.08831906 37642,6917.905,95.438,541.136,538.405,0.0
52139.0,STARLINK-3730,PAYLOAD,2022-11-12 20:26:18,15.08836466,0.0002069,53.2175,123.7608,43.5067,316.6088,3.5773000000000005e-05,2.81e-06,0.0,0 STARLINK-3730,1 52139U 22029BD  22316.85160675  .00000281  00000-0  35773-4 0  9997,2 52139  53.2175 123.7608 0002069  43.5067 316.6088 15.08836466 37698,6917.891,95.438,541.188,538.325,0.0
52139.0,STARLINK-3730,PAYLOAD,2022-11-13 10:44:46,15.08842903,0.000209,53.2177,121.0844,45.3967,314.7196,4.8787e-05,4.88e-06,0.0,0 STARLINK-3730,1 52139U 22029BD  22317.44776253  .00000488  00000-0  48787-4 0  9996,2 52139  53.2177 121.0844 0002090  45.3967 314.7196 15.08842903 37788,6917.871999999999,95.437,541.182,538.2909999999998,0.0
52139.0,STARLINK-3730,PAYLOAD,2022-11-13 18:41:42,15.08843932,0.0002052,53.2175,119.5983,32.897,327.2149,1.1692e-05,-1.02e-06,0.0,0 STARLINK-3730,1 52139U 22029BD  22317.77896209 -.00000102  00000-0  11692-4 0  9995,2 52139  53.2175 119.5983 0002052  32.8970 327.2149 15.08843932 37831,6917.868,95.437,541.153,538.314,0.0
52139.0,STARLINK-3730,PAYLOAD,2022-11-14 04:14:01,15.08830474,0.0002011,53.2172,117.8149,42.7891,317.3257,3.4832e-05,2.66e-06,0.0,0 STARLINK-3730,1 52139U 22029BD  22318.17641107  .00000266  00000-0  34832-4 0  9996,2 52139  53.2172 117.8149 0002011  42.7891 317.3257 15.08830474 37893,6917.91,95.438,541.1659999999998,538.383,0.0
52139.0,STARLINK-3730,PAYLOAD,2022-11-14 10:35:34,15.08834017,0.0002075,53.2175,116.6248,44.3759,315.7399,1.4203e-05,-6.2e-07,0.0,0 STARLINK-3730,1 52139U 22029BD  22318.44137065 -.00000062  00000-0  14203-4 0  9994,2 52139  53.2175 116.6248 0002075  44.3759 315.7399 15.08834017 37935,6917.899,95.438,541.1990000000002,538.328,0.0
52139.0,STARLINK-3730,PAYLOAD,2022-11-14 16:57:06,15.08836738,0.0002111,53.2173,115.4349,45.4712,314.6453,4.1273e-05,3.69e-06,0.0,0 STARLINK-3730,1 52139U 22029BD  22318.70632860  .00000369  00000-0  41273-4 0  9992,2 52139  53.2173 115.4349 0002111  45.4712 314.6453 15.08836738 37979,6917.89,95.438,541.216,538.295,0.0
52139.0,STARLINK-3730,PAYLOAD,2022-11-15 10:26:20,15.08844168,0.0002262,53.2182,112.1644,48.2102,311.9083,7.3746e-06,-1.71e-06,0.0,0 STARLINK-3730,1 52139U 22029BD  22319.43496411 -.00000171  00000-0  73746-5 0  9996,2 52139  53.2182 112.1644 0002262  48.2102 311.9083 15.08844168 38080,6917.868,95.437,541.297,538.168,0.0
